start=new Date('2022-12-07T00:00:00.000Z').valueOf();
sats=[{"TIME_SYSTEM":"UTC","TLE_LINE2":"2 48359  53.0549 298.2749 0001809  48.8441 311.2704 15.06388190 87841","RCS_SIZE":"LARGE","DECAY_DATE":null,"OBJECT_TYPE":"PAYLOAD","CENTER_NAME":"EARTH","INCLINATION":"53.0549","COUNTRY_CODE":"US","MEAN_MOTION_DOT":"-0.00003892","MEAN_ANOMALY":"311.2704","SEMIMAJOR_AXIS":"6925.385","RA_OF_ASC_NODE":"298.2749","REV_AT_EPOCH":"8784","SITE":"AFETR","PERIOD":"95.593","FILE":"3683274","ELEMENT_SET_NO":"999","TLE_LINE1":"1 48359U 21038G   22340.90888815 -.00003892  00000-0 -24259-3 0  9990","BSTAR":"-0.00024259000000","PERIAPSIS":"545.997","EPHEMERIS_TYPE":"0","LAUNCH_DATE":"2021-05-04","OBJECT_ID":"2021-038G","GP_ID":"219695927","MEAN_ELEMENT_THEORY":"SGP4","REF_FRAME":"TEME","MEAN_MOTION_DDOT":"0.0000000000000","NORAD_CAT_ID":"48359","OBJECT_NAME":"STARLINK-2628","EPOCH":"2022-12-06T21:48:47.936160","ECCENTRICITY":"0.00018090","CLASSIFICATION_TYPE":"U","MEAN_MOTION":"15.06388190","ARG_OF_PERICENTER":"48.8441","APOAPSIS":"548.503"},{"OBJECT_NAME":"STARLINK-2622","ECCENTRICITY":"0.00014970","CLASSIFICATION_TYPE":"U","MEAN_MOTION":"15.06401797","ARG_OF_PERICENTER":"62.1566","EPOCH":"2022-12-06T07:23:37.923648","APOAPSIS":"548.245","LAUNCH_DATE":"2021-05-04","PERIAPSIS":"546.171","EPHEMERIS_TYPE":"0","OBJECT_ID":"2021-038H","GP_ID":"219665712","MEAN_ELEMENT_THEORY":"SGP4","MEAN_MOTION_DDOT":"0.0000000000000","REF_FRAME":"TEME","NORAD_CAT_ID":"48360","MEAN_MOTION_DOT":"0.00000144","SEMIMAJOR_AXIS":"6925.343","MEAN_ANOMALY":"297.9574","REV_AT_EPOCH":"8775","SITE":"AFETR","RA_OF_ASC_NODE":"300.9726","TLE_LINE1":"1 48360U 21038H   22340.30807782  .00000144  00000-0  28560-4 0  9995","ELEMENT_SET_NO":"999","BSTAR":"0.00002856000000","PERIOD":"95.592","FILE":"3683104","RCS_SIZE":"LARGE","DECAY_DATE":null,"TIME_SYSTEM":"UTC","TLE_LINE2":"2 48360  53.0562 300.9726 0001497  62.1566 297.9574 15.06401797 87758","OBJECT_TYPE":"PAYLOAD","INCLINATION":"53.0562","CENTER_NAME":"EARTH","COUNTRY_CODE":"US"},{"APOAPSIS":"548.455","OBJECT_NAME":"STARLINK-2591","EPOCH":"2022-12-06T21:38:11.328864","CLASSIFICATION_TYPE":"U","ARG_OF_PERICENTER":"66.0895","MEAN_MOTION":"15.06388988","ECCENTRICITY":"0.00017440","REF_FRAME":"TEME","MEAN_MOTION_DDOT":"0.0000000000000","MEAN_ELEMENT_THEORY":"SGP4","NORAD_CAT_ID":"48361","EPHEMERIS_TYPE":"0","PERIAPSIS":"546.040","LAUNCH_DATE":"2021-05-04","OBJECT_ID":"2021-038J","GP_ID":"219694428","RA_OF_ASC_NODE":"298.3106","SITE":"AFETR","REV_AT_EPOCH":"8784","FILE":"3683274","PERIOD":"95.593","TLE_LINE1":"1 48361U 21038J   22340.90152001 -.00001117  00000-0 -56120-4 0  9995","BSTAR":"-0.00005612000000","ELEMENT_SET_NO":"999","MEAN_MOTION_DOT":"-0.00001117","MEAN_ANOMALY":"294.0277","SEMIMAJOR_AXIS":"6925.382","CENTER_NAME":"EARTH","INCLINATION":"53.0547","COUNTRY_CODE":"US","TLE_LINE2":"2 48361  53.0547 298.3106 0001744  66.0895 294.0277 15.06388988 87841","TIME_SYSTEM":"UTC","DECAY_DATE":null,"RCS_SIZE":"LARGE","OBJECT_TYPE":"PAYLOAD"},{"CENTER_NAME":"EARTH","INCLINATION":"53.0549","COUNTRY_CODE":"US","TIME_SYSTEM":"UTC","TLE_LINE2":"2 48362  53.0549 299.7143 0001683  60.6314 299.4843 15.06394929 87804","RCS_SIZE":"LARGE","DECAY_DATE":null,"OBJECT_TYPE":"PAYLOAD","RA_OF_ASC_NODE":"299.7143","REV_AT_EPOCH":"8780","SITE":"AFETR","PERIOD":"95.592","FILE":"3683274","TLE_LINE1":"1 48362U 21038K   22340.60297046  .00000288  00000-0  38219-4 0  9997","BSTAR":"0.00003821900000","ELEMENT_SET_NO":"999","MEAN_MOTION_DOT":"0.00000288","MEAN_ANOMALY":"299.4843","SEMIMAJOR_AXIS":"6925.364","MEAN_ELEMENT_THEORY":"SGP4","REF_FRAME":"TEME","MEAN_MOTION_DDOT":"0.0000000000000","NORAD_CAT_ID":"48362","PERIAPSIS":"546.064","EPHEMERIS_TYPE":"0","LAUNCH_DATE":"2021-05-04","GP_ID":"219694678","OBJECT_ID":"2021-038K","APOAPSIS":"548.395","OBJECT_NAME":"STARLINK-2578","EPOCH":"2022-12-06T14:28:16.647744","ECCENTRICITY":"0.00016830","ARG_OF_PERICENTER":"60.6314","CLASSIFICATION_TYPE":"U","MEAN_MOTION":"15.06394929"},{"OBJECT_NAME":"STARLINK-2626","EPOCH":"2022-12-06T21:04:21.316800","ECCENTRICITY":"0.00015810","MEAN_MOTION":"15.06383125","CLASSIFICATION_TYPE":"U","ARG_OF_PERICENTER":"76.4812","APOAPSIS":"548.360","PERIAPSIS":"546.170","EPHEMERIS_TYPE":"0","LAUNCH_DATE":"2021-05-04","GP_ID":"219695428","OBJECT_ID":"2021-038L","MEAN_ELEMENT_THEORY":"SGP4","MEAN_MOTION_DDOT":"0.0000000000000","REF_FRAME":"TEME","NORAD_CAT_ID":"48363","MEAN_MOTION_DOT":"0.00001259","MEAN_ANOMALY":"283.6353","SEMIMAJOR_AXIS":"6925.400","RA_OF_ASC_NODE":"293.4156","REV_AT_EPOCH":"8791","SITE":"AFETR","PERIOD":"95.593","FILE":"3683274","ELEMENT_SET_NO":"999","TLE_LINE1":"1 48363U 21038L   22340.87802450  .00001259  00000-0  10344-3 0  9995","BSTAR":"0.00010344000000","TIME_SYSTEM":"UTC","TLE_LINE2":"2 48363  53.0545 293.4156 0001581  76.4812 283.6353 15.06383125 87910","DECAY_DATE":null,"RCS_SIZE":"LARGE","OBJECT_TYPE":"PAYLOAD","CENTER_NAME":"EARTH","INCLINATION":"53.0545","COUNTRY_CODE":"US"},{"CENTER_NAME":"EARTH","INCLINATION":"53.0560","COUNTRY_CODE":"US","TIME_SYSTEM":"UTC","TLE_LINE2":"2 48364  53.0560 296.2252 0001901  56.9026 303.2145 15.06407942 87824","DECAY_DATE":null,"RCS_SIZE":"LARGE","OBJECT_TYPE":"PAYLOAD","RA_OF_ASC_NODE":"296.2252","REV_AT_EPOCH":"8782","SITE":"AFETR","PERIOD":"95.592","FILE":"3683104","TLE_LINE1":"1 48364U 21038M   22340.29565980  .00002384  00000-0  17885-3 0  9993","ELEMENT_SET_NO":"999","BSTAR":"0.00017885000000","MEAN_MOTION_DOT":"0.00002384","MEAN_ANOMALY":"303.2145","SEMIMAJOR_AXIS":"6925.324","MEAN_ELEMENT_THEORY":"SGP4","REF_FRAME":"TEME","MEAN_MOTION_DDOT":"0.0000000000000","NORAD_CAT_ID":"48364","PERIAPSIS":"545.873","EPHEMERIS_TYPE":"0","LAUNCH_DATE":"2021-05-04","OBJECT_ID":"2021-038M","GP_ID":"219666196","APOAPSIS":"548.506","OBJECT_NAME":"STARLINK-2611","EPOCH":"2022-12-06T07:05:45.006720","ECCENTRICITY":"0.00019010","CLASSIFICATION_TYPE":"U","ARG_OF_PERICENTER":"56.9026","MEAN_MOTION":"15.06407942"},{"CENTER_NAME":"EARTH","INCLINATION":"53.0541","COUNTRY_CODE":"US","TIME_SYSTEM":"UTC","TLE_LINE2":"2 48365  53.0541 293.2154 0001516  80.0125 280.1035 15.06395302 88516","RCS_SIZE":"LARGE","DECAY_DATE":null,"OBJECT_TYPE":"PAYLOAD","RA_OF_ASC_NODE":"293.2154","REV_AT_EPOCH":"8851","SITE":"AFETR","PERIOD":"95.592","FILE":"3683223","ELEMENT_SET_NO":"999","TLE_LINE1":"1 48365U 21038N   22340.91856254 -.00001751  00000-0 -98684-4 0  9996","BSTAR":"-0.00009868400000","MEAN_MOTION_DOT":"-0.00001751","MEAN_ANOMALY":"280.1035","SEMIMAJOR_AXIS":"6925.363","MEAN_ELEMENT_THEORY":"SGP4","MEAN_MOTION_DDOT":"0.0000000000000","REF_FRAME":"TEME","NORAD_CAT_ID":"48365","PERIAPSIS":"546.178","EPHEMERIS_TYPE":"0","LAUNCH_DATE":"2021-05-04","GP_ID":"219672607","OBJECT_ID":"2021-038N","APOAPSIS":"548.278","OBJECT_NAME":"STARLINK-2608","EPOCH":"2022-12-06T22:02:43.803456","ECCENTRICITY":"0.00015160","ARG_OF_PERICENTER":"80.0125","CLASSIFICATION_TYPE":"U","MEAN_MOTION":"15.06395302"},{"APOAPSIS":"548.408","OBJECT_NAME":"STARLINK-2631","EPOCH":"2022-12-06T13:47:07.396224","ARG_OF_PERICENTER":"66.4414","CLASSIFICATION_TYPE":"U","MEAN_MOTION":"15.06393970","ECCENTRICITY":"0.00016980","REF_FRAME":"TEME","MEAN_MOTION_DDOT":"0.0000000000000","MEAN_ELEMENT_THEORY":"SGP4","NORAD_CAT_ID":"48366","EPHEMERIS_TYPE":"0","PERIAPSIS":"546.056","LAUNCH_DATE":"2021-05-04","GP_ID":"219695178","OBJECT_ID":"2021-038P","RA_OF_ASC_NODE":"289.7762","SITE":"AFETR","REV_AT_EPOCH":"8793","FILE":"3683274","PERIOD":"95.593","TLE_LINE1":"1 48366U 21038P   22340.57439116  .00000458  00000-0  49645-4 0  9997","BSTAR":"0.00004964500000","ELEMENT_SET_NO":"999","MEAN_MOTION_DOT":"0.00000458","MEAN_ANOMALY":"293.6753","SEMIMAJOR_AXIS":"6925.367","CENTER_NAME":"EARTH","INCLINATION":"53.0535","COUNTRY_CODE":"US","TLE_LINE2":"2 48366  53.0535 289.7762 0001698  66.4414 293.6753 15.06393970 87935","TIME_SYSTEM":"UTC","DECAY_DATE":null,"RCS_SIZE":"MEDIUM","OBJECT_TYPE":"PAYLOAD"},{"CENTER_NAME":"EARTH","INCLINATION":"53.0555","COUNTRY_CODE":"US","TIME_SYSTEM":"UTC","TLE_LINE2":"2 48367  53.0555 289.7896 0001775  67.6403 292.4774 15.06395004 87933","RCS_SIZE":"LARGE","DECAY_DATE":null,"OBJECT_TYPE":"PAYLOAD","RA_OF_ASC_NODE":"289.7896","REV_AT_EPOCH":"8793","SITE":"AFETR","PERIOD":"95.592","FILE":"3683274","TLE_LINE1":"1 48367U 21038Q   22340.57070675 -.00000393  00000-0 -74713-5 0  9994","BSTAR":"-0.00000747130000","ELEMENT_SET_NO":"999","MEAN_MOTION_DOT":"-0.00000393","MEAN_ANOMALY":"292.4774","SEMIMAJOR_AXIS":"6925.364","MEAN_ELEMENT_THEORY":"SGP4","REF_FRAME":"TEME","MEAN_MOTION_DDOT":"0.0000000000000","NORAD_CAT_ID":"48367","PERIAPSIS":"546.000","EPHEMERIS_TYPE":"0","LAUNCH_DATE":"2021-05-04","GP_ID":"219695928","OBJECT_ID":"2021-038Q","APOAPSIS":"548.458","OBJECT_NAME":"STARLINK-2643","EPOCH":"2022-12-06T13:41:49.063200","ECCENTRICITY":"0.00017750","ARG_OF_PERICENTER":"67.6403","CLASSIFICATION_TYPE":"U","MEAN_MOTION":"15.06395004"},{"EPOCH":"2022-12-06T21:07:43.339008","ECCENTRICITY":"0.00015430","CLASSIFICATION_TYPE":"U","ARG_OF_PERICENTER":"66.6274","MEAN_MOTION":"15.06385742","OBJECT_NAME":"STARLINK-2623","APOAPSIS":"548.326","GP_ID":"219696163","OBJECT_ID":"2021-038R","PERIAPSIS":"546.189","EPHEMERIS_TYPE":"0","LAUNCH_DATE":"2021-05-04","NORAD_CAT_ID":"48368","MEAN_ELEMENT_THEORY":"SGP4","REF_FRAME":"TEME","MEAN_MOTION_DDOT":"0.0000000000000","MEAN_ANOMALY":"293.4877","SEMIMAJOR_AXIS":"6925.392","MEAN_MOTION_DOT":"-0.00002447","PERIOD":"95.593","FILE":"3683274","TLE_LINE1":"1 48368U 21038R   22340.88036272 -.00002447  00000-0 -14550-3 0  9997","ELEMENT_SET_NO":"999","BSTAR":"-0.00014550000000","RA_OF_ASC_NODE":"288.6777","REV_AT_EPOCH":"8798","SITE":"AFETR","OBJECT_TYPE":"PAYLOAD","TIME_SYSTEM":"UTC","TLE_LINE2":"2 48368  53.0550 288.6777 0001543  66.6274 293.4877 15.06385742 87981","RCS_SIZE":"LARGE","DECAY_DATE":null,"COUNTRY_CODE":"US","CENTER_NAME":"EARTH","INCLINATION":"53.0550"}];
